{"fetched_at":"2026-06-14T03:48:42Z","count":16735,"tles":[{"name":"HAWK-C","line1":"1 43799U 18099AT  26164.39527442  .00007316  00000+0  26427-3 0  9994","line2":"2 43799  97.3897 217.5739 0038867 299.7896  59.9480 15.28053570413338","category":"Other"},{"name":"FLYING LAPTOP","line1":"1 42831U 17042G   26164.65264280  .00002844  00000+0  22576-3 0  9996","line2":"2 42831  97.4665 320.3218 0019454 133.2428 227.0425 15.01123834485920","category":"Other"},{"name":"SALSAT","line1":"1 46495U 20068K   26164.61334546  .00008137  00000+0  28494-3 0  9993","line2":"2 46495  97.8845 167.4603 0008310 323.2809  36.7860 15.29752133314812","category":"Other"},{"name":"APRIZESAT 7","line1":"1 39416U 13066A   26164.39716777  .00000923  00000+0  96802-4 0  9997","line2":"2 39416  97.7709 117.6716 0034705 222.0838 137.7714 14.91556500680669","category":"Other"},{"name":"CUTE-1 (CO-55)","line1":"1 27844U 03031E   26164.59502060  .00000276  00000+0  13836-3 0  9996","line2":"2 27844  98.6734 173.1988 0009255 188.5198 171.5825 14.24333733191162","category":"Other"},{"name":"CUBESAT XI-IV (CO-57)","line1":"1 27848U 03031J   26164.58167660  .00000234  00000+0  12199-3 0  9997","line2":"2 27848  98.6767 172.9014 0008792 208.1063 151.9642 14.23619125190860","category":"Other"},{"name":"APRIZESAT 8","line1":"1 39425U 13066K   26164.57659980  .00000948  00000+0  10858-3 0  9992","line2":"2 39425  97.8221 112.0948 0044548 298.8325  60.8423 14.87646737679133","category":"Other"},{"name":"BUGSAT-1 (TITA)","line1":"1 40014U 14033E   26164.60301359  .00007233  00000+0  38165-3 0  9996","line2":"2 40014  98.0429 256.9419 0027729 190.7439 169.3203 15.15551523655293","category":"Other"},{"name":"PROBA-2","line1":"1 36037U 09059B   26164.45781648  .00000175  00000+0  51213-4 0  9992","line2":"2 36037  98.2449 347.8623 0012051 294.8827  65.1117 14.54860953880988","category":"Other"},{"name":"PROBA-1","line1":"1 26958U 01049B   26164.61868347  .00002523  00000+0  16505-3 0  9997","line2":"2 26958  97.9602 173.0261 0056015 133.7006 226.8881 15.07484040343088","category":"Other"},{"name":"APRIZESAT 10","line1":"1 40019U 14033K   26164.31711768  .00000380  00000+0  67697-4 0  9997","line2":"2 40019  97.9645 291.3629 0077456 286.4255  72.8449 14.70879323641682","category":"Other"},{"name":"TECHNOSAT","line1":"1 42829U 17042E   26164.39288610  .00003922  00000+0  27998-3 0  9998","line2":"2 42829  97.4267 322.1953 0018783 106.2193 254.1103 15.04934868486132","category":"Other"},{"name":"HAWK-5B","line1":"1 52756U 22057AA  26164.43180870  .00018780  00000+0  32163-3 0  9992","line2":"2 52756  97.6592 322.2062 0005873  87.1985 272.9938 15.51268905225767","category":"Other"},{"name":"HAWK-2C","line1":"1 47502U 21006CT  26164.63125002  .00006750  00000+0  20342-3 0  9996","line2":"2 47502  97.2281 209.0120 0006267 198.5358 161.5658 15.34623818298959","category":"Other"},{"name":"HAWK-3A","line1":"1 48957U 21059CG  26164.49824275  .00041060  00000+0  35237-3 0  9993","line2":"2 48957  97.6723   3.7462 0003871 352.1708   7.9492 15.69277429277274","category":"Other"},{"name":"HAWK-3B","line1":"1 48931U 21059BE  26164.49867139  .00040908  00000+0  35125-3 0  9997","line2":"2 48931  97.6657   0.8591 0003487 349.8779  10.2411 15.69267023277274","category":"Other"},{"name":"HAWK-B","line1":"1 43794U 18099AN  26164.62437103  .00006497  00000+0  27749-3 0  9996","line2":"2 43794  97.3968 216.3290 0030717 318.0654  41.8230 15.22790188412490","category":"Other"},{"name":"HAWK-5C","line1":"1 52754U 22057Y   26164.43195758  .00018571  00000+0  31814-3 0  9991","line2":"2 52754  97.6584 323.8574 0005219  94.2232 265.9616 15.51268030225763","category":"Other"},{"name":"HAWK-3C","line1":"1 48948U 21059BX  26164.49835285  .00041722  00000+0  35808-3 0  9995","line2":"2 48948  97.6784   6.5384 0003794 349.8001  10.3183 15.69273060277270","category":"Other"},{"name":"APRIZESAT 3","line1":"1 35686U 09041F   26164.35395843  .00001438  00000+0  12832-3 0  9995","line2":"2 35686  98.2053 317.3944 0062742  80.0772 280.7523 14.96229936915804","category":"Other"},{"name":"APRIZESAT 5","line1":"1 37792U 11044E   26164.35905291  .00001030  00000+0  13711-3 0  9990","line2":"2 37792  98.2455  97.2909 0052647  16.5868 343.7051 14.81068171798225","category":"Other"}]}