OBJECT_NAME,OBJECT_ID,EPOCH,MEAN_MOTION,ECCENTRICITY,INCLINATION,RA_OF_ASC_NODE,ARG_OF_PERICENTER,MEAN_ANOMALY,EPHEMERIS_TYPE,CLASSIFICATION_TYPE,NORAD_CAT_ID,ELEMENT_SET_NO,REV_AT_EPOCH,BSTAR,MEAN_MOTION_DOT,MEAN_MOTION_DDOT
PROBA-1,2001-049B,2026-06-13T14:50:54.251808,15.07484040,.00560154,97.9602,173.0261,133.7006,226.8881,0,U,26958,999,34308,.16505023E-3,.2523E-4,0
CUTE-1 (CO-55),2003-031E,2026-06-13T14:16:49.779840,14.24333733,.0009255,98.6734,173.1988,188.5198,171.5825,0,U,27844,999,19116,.13835812E-3,.276E-5,0
CUBESAT XI-IV (CO-57),2003-031J,2026-06-13T13:57:36.858240,14.23619125,.00087926,98.6767,172.9014,208.1063,151.9642,0,U,27848,999,19086,.1219905E-3,.234E-5,0
APRIZESAT 3,2009-041F,2026-06-13T08:29:42.008352,14.96229936,.00627427,98.2053,317.3944,80.0772,280.7523,0,U,35686,999,91580,.12832015E-3,.1438E-4,0
PROBA-2,2009-059B,2026-06-13T10:59:15.343872,14.54860953,.00120516,98.2449,347.8623,294.8827,65.1117,0,U,36037,999,88098,.51213492E-4,.175E-5,0
APRIZESAT 5,2011-044E,2026-06-13T08:37:02.171424,14.81068171,.00526478,98.2455,97.2909,16.5868,343.7051,0,U,37792,999,79822,.13711316E-3,.103E-4,0
APRIZESAT 7,2013-066A,2026-06-13T09:31:55.295328,14.91556500,.00347053,97.7709,117.6716,222.0838,137.7714,0,U,39416,999,68066,.96801964E-4,.923E-5,0
APRIZESAT 8,2013-066K,2026-06-13T13:50:18.222720,14.87646737,.00445483,97.8221,112.0948,298.8325,60.8423,0,U,39425,999,67913,.10858473E-3,.948E-5,0
BUGSAT-1 (TITA),2014-033E,2026-06-13T14:28:20.374176,15.15551523,.00277292,98.0429,256.9419,190.7439,169.3203,0,U,40014,999,65529,.38165E-3,.7233E-4,0
APRIZESAT 10,2014-033K,2026-06-13T07:36:38.967552,14.70879323,.00774569,97.9645,291.3629,286.4255,72.8449,0,U,40019,999,64168,.67697486E-4,.38E-5,0
TECHNOSAT,2017-042E,2026-06-13T09:25:45.359040,15.04934868,.00187837,97.4267,322.1953,106.2193,254.1103,0,U,42829,999,48613,.27997945E-3,.3922E-4,0
FLYING LAPTOP,2017-042G,2026-06-13T15:39:48.337920,15.01123834,.00194549,97.4665,320.3218,133.2428,227.0425,0,U,42831,999,48592,.22575636E-3,.2844E-4,0
HAWK-B,2018-099AN,2026-06-13T14:59:05.656992,15.22790188,.00307175,97.3968,216.3290,318.0654,41.8230,0,U,43794,999,41249,.2774893E-3,.6497E-4,0
HAWK-C,2018-099AT,2026-06-13T09:29:11.709888,15.28053570,.00388673,97.3897,217.5739,299.7896,59.9480,0,U,43799,999,41333,.26427026E-3,.7316E-4,0
SALSAT,2020-068K,2026-06-13T14:43:13.047744,15.29752133,.00083104,97.8845,167.4603,323.2809,36.7860,0,U,46495,999,31481,.28494451E-3,.8137E-4,0
HAWK-2C,2021-006CT,2026-06-13T15:09:00.001728,15.34623818,.00062676,97.2281,209.0120,198.5358,161.5658,0,U,47502,999,29895,.20342498E-3,.675E-4,0
HAWK-3B,2021-059BE,2026-06-13T11:58:05.208096,15.69267023,.00034874,97.6657,0.8591,349.8779,10.2411,0,U,48931,999,27727,.35125226E-3,.40908E-3,0
HAWK-3C,2021-059BX,2026-06-13T11:57:37.686240,15.69273060,.00037947,97.6784,6.5384,349.8001,10.3183,0,U,48948,999,27727,.35807906E-3,.41722E-3,0
HAWK-3A,2021-059CG,2026-06-13T11:57:28.173600,15.69277429,.0003871,97.6723,3.7462,352.1708,7.9492,0,U,48957,999,27727,.35236892E-3,.4106E-3,0
HAWK-5C,2022-057Y,2026-06-13T10:22:01.134912,15.51268030,.00052195,97.6584,323.8574,94.2232,265.9616,0,U,52754,999,22576,.31814472E-3,.18571E-3,0
HAWK-5B,2022-057AA,2026-06-13T10:21:48.271680,15.51268905,.0005873,97.6592,322.2062,87.1985,272.9938,0,U,52756,999,22576,.32163178E-3,.1878E-3,0
